[{"OBJECT_NAME":"VSP RF C1","OBJECT_ID":"2024-043AQ","EPOCH":"2026-03-09T21:56:05.358624","MEAN_MOTION":15.29409663,"ECCENTRICITY":0.00093965,"INCLINATION":97.5441,"RA_OF_ASC_NODE":205.1792,"ARG_OF_PERICENTER":219.6172,"MEAN_ANOMALY":140.4382,"EPHEMERIS_TYPE":0,"CLASSIFICATION_TYPE":"U","NORAD_CAT_ID":59136,"ELEMENT_SET_NO":999,"REV_AT_EPOCH":11190,"BSTAR":0.00026222052,"MEAN_MOTION_DOT":7.409e-5,"MEAN_MOTION_DDOT":0},{"OBJECT_NAME":"STARLINK-32586","OBJECT_ID":"2024-210S","EPOCH":"2026-03-09T07:47:05.017632","MEAN_MOTION":15.27591735,"ECCENTRICITY":0.00027237,"INCLINATION":43.0023,"RA_OF_ASC_NODE":181.9245,"ARG_OF_PERICENTER":285.0175,"MEAN_ANOMALY":75.0375,"EPHEMERIS_TYPE":0,"CLASSIFICATION_TYPE":"U","NORAD_CAT_ID":61975,"ELEMENT_SET_NO":999,"REV_AT_EPOCH":7482,"BSTAR":0.0013300912,"MEAN_MOTION_DOT":0.00036536,"MEAN_MOTION_DDOT":0}]
